STARLINK-1846
1 17136C 20088Q   21326.10973744  .00003261  00000-0  21853-3 0  3266
2 17136  53.0532 143.2424 0001527  71.9365 318.1751 15.06387639    12
